NORAD_CAT_ID,OBJECT_NAME,OBJECT_TYPE,EPOCH,MEAN_MOTION,ECCENTRICITY,INCLINATION,RA_OF_ASC_NODE,ARG_OF_PERICENTER,MEAN_ANOMALY,BSTAR,MEAN_MOTION_DOT,MEAN_MOTION_DDOT,TLE_LINE0,TLE_LINE1,TLE_LINE2,SEMIMAJOR_AXIS,PERIOD,APOGEE,PERIGEE,DECAYED
52847.0,STARLINK-4206,PAYLOAD,2024-01-06 08:32:35,15.0884643,0.0001734,53.2188,355.5356,89.4544,270.6646,0.00012882,1.763e-05,0.0,0 STARLINK-4206,1 52847U 22062T   24006.35596750  .00001763  00000-0  12882-3 0  9991,2 52847  53.2188 355.5356 0001734  89.4544 270.6646 15.08846430 86022,6917.861,95.437,540.925,538.526,0.0
52847.0,STARLINK-4206,PAYLOAD,2024-01-07 05:12:36,15.08845852,0.0001729,53.218,351.6691,95.5586,264.5603,0.00010718,1.418e-05,0.0,0 STARLINK-4206,1 52847U 22062T   24007.21708779  .00001418  00000-0  10718-3 0  9996,2 52847  53.2180 351.6691 0001729  95.5586 264.5603 15.08845852 86641,6917.863,95.437,540.924,538.531,0.0
52847.0,STARLINK-4206,PAYLOAD,2024-01-07 08:23:22,15.08848231,0.0001734,53.218,351.074,98.8504,261.2685,0.00012668,1.729e-05,0.0,0 STARLINK-4206,1 52847U 22062T   24007.34956518  .00001729  00000-0  12668-3 0  9997,2 52847  53.2180 351.0740 0001734  98.8504 261.2685 15.08848231 86178,6917.855,95.437,540.92,538.521,0.0
52847.0,STARLINK-4206,PAYLOAD,2024-01-08 03:28:00,15.0884094,0.0001831,53.219,347.5014,96.2442,263.8759,-1.1274e-05,-4.68e-06,0.0,0 STARLINK-4206,1 52847U 22062T   24008.14445293 -.00000468  00000-0 -11274-4 0  9993,2 52847  53.2190 347.5014 0001831  96.2442 263.8759 15.08840940 86780,6917.878,95.437,541.009,538.476,0.0
52847.0,STARLINK-4206,PAYLOAD,2024-01-08 08:14:10,15.0884209,0.0001884,53.2191,346.6094,86.2462,273.8745,-1.3286e-05,-5e-06,0.0,0 STARLINK-4206,1 52847U 22062T   24008.34317233 -.00000500  00000-0 -13286-4 0  9999,2 52847  53.2191 346.6094 0001884  86.2462 273.8745 15.08842090 86322,6917.874,95.437,541.042,538.436,0.0
52847.0,STARLINK-4206,PAYLOAD,2024-01-09 04:54:10,15.08840006,0.0001837,53.2191,342.7445,111.3719,248.7469,2.2572e-05,7.1e-07,0.0,0 STARLINK-4206,1 52847U 22062T   24009.20429178  .00000071  00000-0  22572-4 0  9996,2 52847  53.2191 342.7445 0001837 111.3719 248.7469 15.08840006 86949,6917.88,95.438,541.016,538.475,0.0
52847.0,STARLINK-4206,PAYLOAD,2024-01-09 08:04:57,15.08840273,0.0001821,53.2192,342.1504,109.3252,250.7937,9.981e-06,-1.29e-06,0.0,0 STARLINK-4206,1 52847U 22062T   24009.33677218 -.00000129  00000-0  99810-5 0  9995,2 52847  53.2192 342.1504 0001821 109.3252 250.7937 15.08840273 86479,6917.88,95.438,541.004,538.485,0.0
52847.0,STARLINK-4206,PAYLOAD,2024-01-09 22:23:25,15.08839044,0.0001876,53.2192,339.4741,104.5372,255.5828,6.0533e-05,6.75e-06,0.0,0 STARLINK-4206,1 52847U 22062T   24009.93293245  .00000675  00000-0  60533-4 0  9999,2 52847  53.2192 339.4741 0001876 104.5372 255.5828 15.08839044 86567,6917.883,95.438,541.046,538.451,0.0
52847.0,STARLINK-4206,PAYLOAD,2024-01-10 03:09:34,15.08839854,0.0001696,53.2182,338.5818,100.9194,259.1989,0.0002119,3.086e-05,0.0,0 STARLINK-4206,1 52847U 22062T   24010.13164722  .00003086  00000-0  21190-3 0  9994,2 52847  53.2182 338.5818 0001696 100.9194 259.1989 15.08839854 86593,6917.881,95.438,540.919,538.573,0.0
52847.0,STARLINK-4206,PAYLOAD,2024-01-11 03:00:22,15.08838631,0.0001543,53.2182,334.123,97.5397,262.577,4.0883e-05,3.63e-06,0.0,0 STARLINK-4206,1 52847U 22062T   24011.12525592  .00000363  00000-0  40883-4 0  9996,2 52847  53.2182 334.1230 0001543  97.5397 262.5770 15.08838631 87230,6917.885,95.438,540.817,538.682,0.0
52847.0,STARLINK-4206,PAYLOAD,2024-01-11 22:05:00,15.08839361,0.0001447,53.2181,330.5589,95.912,264.2037,1.0356e-07,-2.86e-06,0.0,0 STARLINK-4206,1 52847U 22062T   24011.92013906 -.00000286  00000-0  10356-6 0  9994,2 52847  53.2181 330.5589 0001447  95.9120 264.2037 15.08839361 86869,6917.882,95.438,540.748,538.746,0.0
52847.0,STARLINK-4206,PAYLOAD,2024-01-12 07:37:17,15.08867922,0.0001401,53.2176,328.7737,97.7017,262.4134,-0.00022397,-3.853e-05,0.0,0 STARLINK-4206,1 52847U 22062T   24012.31756441 -.00003853  00000-0 -22397-3 0  9995,2 52847  53.2176 328.7737 0001401  97.7017 262.4134 15.08867922 87416,6917.795,95.436,540.629,538.691,0.0
52847.0,STARLINK-4206,PAYLOAD,2024-01-13 04:17:19,15.08839081,0.0001503,53.2183,324.9086,81.9707,278.1456,9.2146e-05,1.179e-05,0.0,0 STARLINK-4206,1 52847U 22062T   24013.17870077  .00001179  00000-0  92146-4 0  9999,2 52847  53.2183 324.9086 0001503  81.9707 278.1456 15.08839081 87543,6917.883,95.438,540.788,538.708,0.0
52847.0,STARLINK-4206,PAYLOAD,2024-01-14 04:08:06,15.08850282,0.0001431,53.2176,320.4488,84.9918,275.1238,0.00014238,1.979e-05,0.0,0 STARLINK-4206,1 52847U 22062T   24014.17229406  .00001979  00000-0  14238-3 0  9997,2 52847  53.2176 320.4488 0001431  84.9918 275.1238 15.08850282 87696,6917.849,95.437,540.704,538.724,0.0
52847.0,STARLINK-4206,PAYLOAD,2024-01-14 05:43:29,15.08854218,0.0001403,53.2186,320.1484,81.9431,278.172,0.00018356,2.636e-05,0.0,0 STARLINK-4206,1 52847U 22062T   24014.23853045  .00002636  00000-0  18356-3 0  9992,2 52847  53.2186 320.1484 0001403  81.9431 278.1720 15.08854218 87216,6917.837,95.437,540.673,538.731,0.0
52847.0,STARLINK-4206,PAYLOAD,2024-01-14 20:01:58,15.0883649,0.0001719,53.2183,317.4686,128.4611,231.6535,9.9651e-05,1.298e-05,0.0,0 STARLINK-4206,1 52847U 22062T   24014.83470564  .00001298  00000-0  99651-4 0  9990,2 52847  53.2183 317.4686 0001719 128.4611 231.6535 15.08836490 87796,6917.891,95.438,540.945,538.567,0.0
52847.0,STARLINK-4206,PAYLOAD,2024-01-15 00:48:07,15.08846183,0.0001894,53.218,316.5844,92.5967,267.5242,0.00012493,1.701e-05,0.0,0 STARLINK-4206,1 52847U 22062T   24015.03341956  .00001701  00000-0  12493-3 0  9992,2 52847  53.2180 316.5844 0001894  92.5967 267.5242 15.08846183 87825,6917.861,95.437,541.037,538.416,0.0
52847.0,STARLINK-4206,PAYLOAD,2024-01-15 02:23:30,15.08847046,0.0001759,53.2179,316.2869,98.637,261.4822,0.00011788,1.589e-05,0.0,0 STARLINK-4206,1 52847U 22062T   24015.09965814  .00001589  00000-0  11788-3 0  9993,2 52847  53.2179 316.2869 0001759  98.6370 261.4822 15.08847046 87345,6917.859,95.437,540.941,538.507,0.0
52847.0,STARLINK-4206,PAYLOAD,2024-01-15 23:03:31,15.08841186,0.0001948,53.2174,312.421,119.4347,240.684,4.9814e-06,-2.09e-06,0.0,0 STARLINK-4206,1 52847U 22062T   24015.96078182 -.00000209  00000-0  49814-5 0  9994,2 52847  53.2174 312.4210 0001948 119.4347 240.6840 15.08841186 87960,6917.877,95.437,541.089,538.394,0.0
52847.0,STARLINK-4206,PAYLOAD,2024-01-16 05:25:03,15.08845314,0.0001658,53.2183,311.2265,114.0717,246.0449,2.4748e-05,1.06e-06,0.0,0 STARLINK-4206,1 52847U 22062T   24016.22573858  .00000106  00000-0  24748-4 0  9997,2 52847  53.2183 311.2265 0001658 114.0717 246.0449 15.08845314 87510,6917.864,95.437,540.876,538.582,0.0
52847.0,STARLINK-4206,PAYLOAD,2024-01-17 02:05:04,15.08848923,0.0001715,53.2182,307.3608,111.051,249.0665,7.452e-05,8.98e-06,0.0,0 STARLINK-4206,1 52847U 22062T   24017.08685591  .00000898  00000-0  74520-4 0  9991,2 52847  53.2182 307.3608 0001715 111.0510 249.0665 15.08848923 88139,6917.853,95.437,540.905,538.532,0.0
52847.0,STARLINK-4206,PAYLOAD,2024-01-17 22:45:05,15.08838687,0.0001937,53.2169,303.4971,128.6068,231.5098,-1.6495e-05,-5.51e-06,0.0,0 STARLINK-4206,1 52847U 22062T   24017.94798210 -.00000551  00000-0 -16495-4 0  9994,2 52847  53.2169 303.4971 0001937 128.6068 231.5098 15.08838687 87773,6917.884,95.438,541.089,538.409,0.0
52847.0,STARLINK-4206,PAYLOAD,2024-01-18 01:55:52,15.08837977,0.0001528,53.2177,302.9,107.1995,252.9165,5.8207e-05,6.38e-06,0.0,0 STARLINK-4206,1 52847U 22062T   24018.08046448  .00000638  00000-0  58207-4 0  9990,2 52847  53.2177 302.9000 0001528 107.1995 252.9165 15.08837977 88286,6917.887,95.438,540.809,538.695,0.0
52847.0,STARLINK-4206,PAYLOAD,2024-01-18 22:35:52,15.08841261,0.0001487,53.2174,299.0389,106.4009,253.7147,-3.2579e-05,-8.06e-06,0.0,0 STARLINK-4206,1 52847U 22062T   24018.94158464 -.00000806  00000-0 -32579-4 0  9990,2 52847  53.2174 299.0389 0001487 106.4009 253.7147 15.08841261 87921,6917.877,95.437,540.77,538.713,0.0
52847.0,STARLINK-4206,PAYLOAD,2024-01-19 00:11:15,15.08843305,0.0001573,53.2179,298.7437,110.7091,249.407,1.017e-05,-1.26e-06,0.0,0 STARLINK-4206,1 52847U 22062T   24019.00782355 -.00000126  00000-0  10170-4 0  9997,2 52847  53.2179 298.7437 0001573 110.7091 249.4070 15.08843305 87930,6917.87,95.437,540.823,538.647,0.0
52847.0,STARLINK-4206,PAYLOAD,2024-01-19 22:26:40,15.08835785,0.000152,53.2181,294.5829,103.9086,256.2075,0.00021948,3.206e-05,0.0,0 STARLINK-4206,1 52847U 22062T   24019.93518856  .00003206  00000-0  21948-3 0  9997,2 52847  53.2181 294.5829 0001520 103.9086 256.2075 15.08835785 88072,6917.893,95.438,540.81,538.707,0.0
52847.0,STARLINK-4206,PAYLOAD,2024-01-20 03:12:49,15.08833699,0.0001567,53.2178,293.6876,98.167,261.95,0.00044868,6.859e-05,0.0,0 STARLINK-4206,1 52847U 22062T   24020.13391035  .00006859  00000-0  44868-3 0  9992,2 52847  53.2178 293.6876 0001567  98.1670 261.9500 15.08833699 88590,6917.9,95.438,540.849,538.681,0.0
52847.0,STARLINK-4206,PAYLOAD,2024-01-20 22:17:27,15.08833045,0.0001649,53.2181,290.1168,97.6962,262.4218,7.7869e-05,9.51e-06,0.0,0 STARLINK-4206,1 52847U 22062T   24020.92879181  .00000951  00000-0  77869-4 0  9997,2 52847  53.2181 290.1168 0001649  97.6962 262.4218 15.08833045 88226,6917.902,95.438,540.907,538.626,0.0
52847.0,STARLINK-4206,PAYLOAD,2024-01-21 01:28:13,15.08842176,0.0001797,53.2182,289.5256,68.7714,291.347,5.7025e-05,6.2e-06,0.0,0 STARLINK-4206,1 52847U 22062T   24021.06126921  .00000620  00000-0  57025-4 0  9995,2 52847  53.2182 289.5256 0001797  68.7714 291.3470 15.08842176 88737,6917.874,95.437,540.982,538.496,0.0
52847.0,STARLINK-4206,PAYLOAD,2024-01-21 17:22:05,15.08840888,0.0001859,53.2178,286.5546,72.9163,287.2033,9.2426e-05,1.183e-05,0.0,0 STARLINK-4206,1 52847U 22062T   24021.72367181  .00001183  00000-0  92426-4 0  9992,2 52847  53.2178 286.5546 0001859  72.9163 287.2033 15.08840888 88349,6917.878,95.437,541.029,538.457,0.0
